2025-155V               
1 64895U 25155V   26068.85787115  .00013705  00000+0  51002-3 0  9990
2 64895  97.4485  37.2490 0008035 152.8264 207.3397 15.27583301 65579
STARLINK-36448          
1 67354U 26003W   26068.49668233  .00033470  00000+0  12194-2 0  9994
2 67354  42.9951 228.2137 0001167 207.6464 152.4326 15.27602724  8799
